[
  {
    "OBJECT_NAME": "STARLINK-31391",
    "OBJECT_ID": "2024-064J",
    "EPOCH": "2025-06-14T07:25:08.987520",
    "MEAN_MOTION": 15.27680974,
    "ECCENTRICITY": 0.0002071,
    "INCLINATION": 43.0017,
    "RA_OF_ASC_NODE": 131.5685,
    "ARG_OF_PERICENTER": 227.5224,
    "MEAN_ANOMALY": 132.5453,
    "EPHEMERIS_TYPE": 0,
    "CLASSIFICATION_TYPE": "U",
    "NORAD_CAT_ID": 59406,
    "ELEMENT_SET_NO": 999,
    "REV_AT_EPOCH": 6818,
    "BSTAR": -0.0009294,
    "MEAN_MOTION_DOT": -0.00025829,
    "MEAN_MOTION_DDOT": 0
  },
  {
    "OBJECT_NAME": "STARLINK-31387",
    "OBJECT_ID": "2024-064K",
    "EPOCH": "2025-06-14T14:39:10.448640",
    "MEAN_MOTION": 15.27572623,
    "ECCENTRICITY": 7.77e-05,
    "INCLINATION": 43.0007,
    "RA_OF_ASC_NODE": 130.3988,
    "ARG_OF_PERICENTER": 273.0955,
    "MEAN_ANOMALY": 86.9808,
    "EPHEMERIS_TYPE": 0,
    "CLASSIFICATION_TYPE": "U",
    "NORAD_CAT_ID": 59407,
    "ELEMENT_SET_NO": 999,
    "REV_AT_EPOCH": 6822,
    "BSTAR": -2.2486e-05,
    "MEAN_MOTION_DOT": -8.8e-06,
    "MEAN_MOTION_DDOT": 0
  },
  {
    "OBJECT_NAME": "STARLINK-31396",
    "OBJECT_ID": "2024-064M",
    "EPOCH": "2025-06-14T06:07:54.631488",
    "MEAN_MOTION": 15.27572592,
    "ECCENTRICITY": 0.0001112,
    "INCLINATION": 43.0017,
    "RA_OF_ASC_NODE": 121.641,
    "ARG_OF_PERICENTER": 281.3491,
    "MEAN_ANOMALY": 78.7235,
    "EPHEMERIS_TYPE": 0,
    "CLASSIFICATION_TYPE": "U",
    "NORAD_CAT_ID": 59409,
    "ELEMENT_SET_NO": 999,
    "REV_AT_EPOCH": 6823,
    "BSTAR": 1.4812e-05,
    "MEAN_MOTION_DOT": 1.46e-06,
    "MEAN_MOTION_DDOT": 0
  },
  {
    "OBJECT_NAME": "STARLINK-31412",
    "OBJECT_ID": "2024-064N",
    "EPOCH": "2025-06-14T14:07:42.350304",
    "MEAN_MOTION": 15.27576714,
    "ECCENTRICITY": 6.83e-05,
    "INCLINATION": 42.9942,
    "RA_OF_ASC_NODE": 130.2187,
    "ARG_OF_PERICENTER": 288.3337,
    "MEAN_ANOMALY": 71.744,
    "EPHEMERIS_TYPE": 0,
    "CLASSIFICATION_TYPE": "U",
    "NORAD_CAT_ID": 59410,
    "ELEMENT_SET_NO": 999,
    "REV_AT_EPOCH": 6822,
    "BSTAR": -3.2269e-05,
    "MEAN_MOTION_DOT": -1.149e-05,
    "MEAN_MOTION_DDOT": 0
  },
  {
    "OBJECT_NAME": "STARLINK-31483",
    "OBJECT_ID": "2024-064P",
    "EPOCH": "2025-06-13T22:42:47.981952",
    "MEAN_MOTION": 15.27574875,
    "ECCENTRICITY": 9.45e-05,
    "INCLINATION": 42.9993,
    "RA_OF_ASC_NODE": 134.0064,
    "ARG_OF_PERICENTER": 272.7698,
    "MEAN_ANOMALY": 87.3046,
    "EPHEMERIS_TYPE": 0,
    "CLASSIFICATION_TYPE": "U",
    "NORAD_CAT_ID": 59411,
    "ELEMENT_SET_NO": 999,
    "REV_AT_EPOCH": 6812,
    "BSTAR": 1.8129e-05,
    "MEAN_MOTION_DOT": 2.37e-06,
    "MEAN_MOTION_DDOT": 0
  },
  {
    "OBJECT_NAME": "STARLINK-31568",
    "OBJECT_ID": "2024-064Q",
    "EPOCH": "2025-06-14T08:11:24.926208",
    "MEAN_MOTION": 15.27600499,
    "ECCENTRICITY": 9.22e-05,
    "INCLINATION": 43.001,
    "RA_OF_ASC_NODE": 131.8094,
    "ARG_OF_PERICENTER": 274.3911,
    "MEAN_ANOMALY": 85.6836,
    "EPHEMERIS_TYPE": 0,
    "CLASSIFICATION_TYPE": "U",
    "NORAD_CAT_ID": 59412,
    "ELEMENT_SET_NO": 999,
    "REV_AT_EPOCH": 6818,
    "BSTAR": 0.00019609,
    "MEAN_MOTION_DOT": 5.141e-05,
    "MEAN_MOTION_DDOT": 0
  },
  {
    "OBJECT_NAME": "STARLINK-31615",
    "OBJECT_ID": "2024-064R",
    "EPOCH": "2025-06-14T14:18:21.439008",
    "MEAN_MOTION": 15.27578484,
    "ECCENTRICITY": 8.29e-05,
    "INCLINATION": 43.0016,
    "RA_OF_ASC_NODE": 123.3371,
    "ARG_OF_PERICENTER": 272.2469,
    "MEAN_ANOMALY": 87.8288,
    "EPHEMERIS_TYPE": 0,
    "CLASSIFICATION_TYPE": "U",
    "NORAD_CAT_ID": 59413,
    "ELEMENT_SET_NO": 999,
    "REV_AT_EPOCH": 6830,
    "BSTAR": -8.3941e-05,
    "MEAN_MOTION_DOT": -2.571e-05,
    "MEAN_MOTION_DDOT": 0
  },
  {
    "OBJECT_NAME": "STARLINK-31457",
    "OBJECT_ID": "2024-064S",
    "EPOCH": "2025-06-14T14:22:02.986752",
    "MEAN_MOTION": 15.27580656,
    "ECCENTRICITY": 4.01e-05,
    "INCLINATION": 43.0008,
    "RA_OF_ASC_NODE": 123.3573,
    "ARG_OF_PERICENTER": 280.9971,
    "MEAN_ANOMALY": 79.0835,
    "EPHEMERIS_TYPE": 0,
    "CLASSIFICATION_TYPE": "U",
    "NORAD_CAT_ID": 59414,
    "ELEMENT_SET_NO": 999,
    "REV_AT_EPOCH": 6830,
    "BSTAR": -4.5653e-05,
    "MEAN_MOTION_DOT": -1.518e-05,
    "MEAN_MOTION_DDOT": 0
  },
  {
    "OBJECT_NAME": "STARLINK-31398",
    "OBJECT_ID": "2024-064T",
    "EPOCH": "2025-06-14T14:02:09.243744",
    "MEAN_MOTION": 15.27588987,
    "ECCENTRICITY": 0.0001695,
    "INCLINATION": 43.0011,
    "RA_OF_ASC_NODE": 130.1923,
    "ARG_OF_PERICENTER": 264.8697,
    "MEAN_ANOMALY": 95.1961,
    "EPHEMERIS_TYPE": 0,
    "CLASSIFICATION_TYPE": "U",
    "NORAD_CAT_ID": 59415,
    "ELEMENT_SET_NO": 999,
    "REV_AT_EPOCH": 6822,
    "BSTAR": -4.5087e-05,
    "MEAN_MOTION_DOT": -1.503e-05,
    "MEAN_MOTION_DDOT": 0
  },
  {
    "OBJECT_NAME": "STARLINK-31399",
    "OBJECT_ID": "2024-064U",
    "EPOCH": "2025-06-14T07:36:16.602912",
    "MEAN_MOTION": 15.2758062,
    "ECCENTRICITY": 0.0001204,
    "INCLINATION": 43.0013,
    "RA_OF_ASC_NODE": 131.6186,
    "ARG_OF_PERICENTER": 263.1354,
    "MEAN_ANOMALY": 96.9361,
    "EPHEMERIS_TYPE": 0,
    "CLASSIFICATION_TYPE": "U",
    "NORAD_CAT_ID": 59416,
    "ELEMENT_SET_NO": 999,
    "REV_AT_EPOCH": 6818,
    "BSTAR": 4.2545e-05,
    "MEAN_MOTION_DOT": 9.09e-06,
    "MEAN_MOTION_DDOT": 0
  },
  {
    "OBJECT_NAME": "STARLINK-31401",
    "OBJECT_ID": "2024-064V",
    "EPOCH": "2025-06-14T14:12:48.685824",
    "MEAN_MOTION": 15.27570165,
    "ECCENTRICITY": 6.77e-05,
    "INCLINATION": 43.0031,
    "RA_OF_ASC_NODE": 123.3313,
    "ARG_OF_PERICENTER": 279.547,
    "MEAN_ANOMALY": 80.5306,
    "EPHEMERIS_TYPE": 0,
    "CLASSIFICATION_TYPE": "U",
    "NORAD_CAT_ID": 59417,
    "ELEMENT_SET_NO": 999,
    "REV_AT_EPOCH": 6809,
    "BSTAR": -6.6209e-05,
    "MEAN_MOTION_DOT": -2.083e-05,
    "MEAN_MOTION_DDOT": 0
  },
  {
    "OBJECT_NAME": "STARLINK-31414",
    "OBJECT_ID": "2024-064W",
    "EPOCH": "2025-06-14T14:18:49.496544",
    "MEAN_MOTION": 15.27565766,
    "ECCENTRICITY": 7.28e-05,
    "INCLINATION": 43.0052,
    "RA_OF_ASC_NODE": 130.2796,
    "ARG_OF_PERICENTER": 301.4984,
    "MEAN_ANOMALY": 58.5796,
    "EPHEMERIS_TYPE": 0,
    "CLASSIFICATION_TYPE": "U",
    "NORAD_CAT_ID": 59418,
    "ELEMENT_SET_NO": 999,
    "REV_AT_EPOCH": 6822,
    "BSTAR": -4.9089e-05,
    "MEAN_MOTION_DOT": -1.612e-05,
    "MEAN_MOTION_DDOT": 0
  },
  {
    "OBJECT_NAME": "STARLINK-31415",
    "OBJECT_ID": "2024-064X",
    "EPOCH": "2025-06-14T07:05:01.474944",
    "MEAN_MOTION": 15.27624911,
    "ECCENTRICITY": 8.89e-05,
    "INCLINATION": 43.0033,
    "RA_OF_ASC_NODE": 132.3289,
    "ARG_OF_PERICENTER": 231.2427,
    "MEAN_ANOMALY": 128.8345,
    "EPHEMERIS_TYPE": 0,
    "CLASSIFICATION_TYPE": "U",
    "NORAD_CAT_ID": 59419,
    "ELEMENT_SET_NO": 999,
    "REV_AT_EPOCH": 6817,
    "BSTAR": -0.00019035,
    "MEAN_MOTION_DOT": -5.503e-05,
    "MEAN_MOTION_DDOT": 0
  },
  {
    "OBJECT_NAME": "STARLINK-31466",
    "OBJECT_ID": "2024-064Y",
    "EPOCH": "2025-06-14T06:59:28.987872",
    "MEAN_MOTION": 15.27583447,
    "ECCENTRICITY": 0.0001139,
    "INCLINATION": 43.0033,
    "RA_OF_ASC_NODE": 132.3004,
    "ARG_OF_PERICENTER": 265.1001,
    "MEAN_ANOMALY": 94.9721,
    "EPHEMERIS_TYPE": 0,
    "CLASSIFICATION_TYPE": "U",
    "NORAD_CAT_ID": 59420,
    "ELEMENT_SET_NO": 999,
    "REV_AT_EPOCH": 6817,
    "BSTAR": 4.8978e-05,
    "MEAN_MOTION_DOT": 1.086e-05,
    "MEAN_MOTION_DDOT": 0
  }
]