STARLINK-31391          
1 59406U 24064J   25165.30913180 -.00025829  00000+0 -92940-3 0  9998
2 59406  43.0017 131.5685 0002071 227.5224 132.5453 15.27680974 68189
STARLINK-31387          
1 59407U 24064K   25165.61053760 -.00000880  00000+0 -22486-4 0  9991
2 59407  43.0007 130.3988 0000777 273.0955  86.9808 15.27572623 68222
STARLINK-31396          
1 59409U 24064M   25165.25549342  .00000146  00000+0  14812-4 0  9996
2 59409  43.0017 121.6410 0001112 281.3491  78.7235 15.27572592 68238
STARLINK-31412          
1 59410U 24064N   25165.58868461 -.00001149  00000+0 -32269-4 0  9992
2 59410  42.9942 130.2187 0000683 288.3337  71.7440 15.27576714 68220
STARLINK-31483          
1 59411U 24064P   25164.94638868  .00000237  00000+0  18129-4 0  9992
2 59411  42.9993 134.0064 0000945 272.7698  87.3046 15.27574875 68121
STARLINK-31568          
1 59412U 24064Q   25165.34126072  .00005141  00000+0  19609-3 0  9999
2 59412  43.0010 131.8094 0000922 274.3911  85.6836 15.27600499 68189
STARLINK-31615          
1 59413U 24064R   25165.59608147 -.00002571  00000+0 -83941-4 0  9992
2 59413  43.0016 123.3371 0000829 272.2469  87.8288 15.27578484 68308
STARLINK-31457          
1 59414U 24064S   25165.59864568 -.00001518  00000+0 -45653-4 0  9992
2 59414  43.0008 123.3573 0000401 280.9971  79.0835 15.27580656 68309
STARLINK-31398          
1 59415U 24064T   25165.58482921 -.00001503  00000+0 -45087-4 0  9996
2 59415  43.0011 130.1923 0001695 264.8697  95.1961 15.27588987 68226
STARLINK-31399          
1 59416U 24064U   25165.31685883  .00000909  00000+0  42545-4 0  9993
2 59416  43.0013 131.6186 0001204 263.1354  96.9361 15.27580620 68188
STARLINK-31401          
1 59417U 24064V   25165.59223016 -.00002083  00000+0 -66209-4 0  9990
2 59417  43.0031 123.3313 0000677 279.5470  80.5306 15.27570165 68059
STARLINK-31414          
1 59418U 24064W   25165.59640621 -.00001612  00000+0 -49089-4 0  9990
2 59418  43.0052 130.2796 0000728 301.4984  58.5796 15.27565766 68225
STARLINK-31415          
1 59419U 24064X   25165.29515596 -.00005503  00000+0 -19035-3 0  9990
2 59419  43.0033 132.3289 0000889 231.2427 128.8345 15.27624911 68178
STARLINK-31466          
1 59420U 24064Y   25165.29130773  .00001086  00000+0  48978-4 0  9991
2 59420  43.0033 132.3004 0001139 265.1001  94.9721 15.27583447 68177
